[{"OBJECT_NAME":"STARLINK-6223","OBJECT_ID":"2023-088K","EPOCH":"2026-03-08T12:14:36.696480","MEAN_MOTION":15.02538628,"ECCENTRICITY":0.00012545,"INCLINATION":43.0026,"RA_OF_ASC_NODE":113.7455,"ARG_OF_PERICENTER":268.1992,"MEAN_ANOMALY":91.8707,"EPHEMERIS_TYPE":0,"CLASSIFICATION_TYPE":"U","NORAD_CAT_ID":57057,"ELEMENT_SET_NO":999,"REV_AT_EPOCH":15019,"BSTAR":1.7020194e-5,"MEAN_MOTION_DOT":2.6e-7,"MEAN_MOTION_DDOT":0},{"OBJECT_NAME":"FENGYUN 1C DEB","OBJECT_ID":"1999-025ECN","EPOCH":"2026-03-02T11:35:56.929056","MEAN_MOTION":14.49527005,"ECCENTRICITY":0.0254766,"INCLINATION":99.2938,"RA_OF_ASC_NODE":323.2209,"ARG_OF_PERICENTER":11.3971,"MEAN_ANOMALY":349.2842,"EPHEMERIS_TYPE":0,"CLASSIFICATION_TYPE":"U","NORAD_CAT_ID":37006,"ELEMENT_SET_NO":999,"REV_AT_EPOCH":66269,"BSTAR":0.0010822805,"MEAN_MOTION_DOT":6.233e-5,"MEAN_MOTION_DDOT":0}]
